{"type":"FeatureCollection","features":[{"type":"Feature","geometry":{"type":"MultiPolygon","coordinates":[[[[-52.064157,-22.533836],[-52.055558,-22.538336],[-52.050538,-22.53825],[-52.047634,-22.53861],[-52.040273,-22.538919],[-52.033424,-22.539208],[-52.028632,-22.539409],[-51.997704,-22.545127],[-51.960368,-22.562976],[-51.950187,-22.564919],[-51.940008,-22.566862],[-51.90121,-22.601496],[-51.892166,-22.609834],[-51.889054,-22.612703],[-51.885114,-22.616401],[-51.873011,-22.627763],[-51.868865,-22.628518],[-51.855271,-22.630992],[-51.846589,-22.631743],[-51.772926,-22.614082],[-51.752781,-22.617271],[-51.749335,-22.620422],[-51.746765,-22.622773],[-51.743446,-22.623362],[-51.734731,-22.624911],[-51.730882,-22.639731],[-51.725371,-22.660949],[-51.717664,-22.668533],[-51.710239,-22.668672],[-51.698669,-22.668888],[-51.681524,-22.660724],[-51.680627,-22.660297],[-51.671229,-22.658529],[-51.661831,-22.656761],[-51.658823,-22.656872],[-51.628084,-22.658002],[-51.619783,-22.660679],[-51.615339,-22.662111],[-51.589541,-22.685206],[-51.559066,-22.696696],[-51.553431,-22.69434],[-51.547796,-22.691984],[-51.525194,-22.686322],[-51.516732,-22.68953],[-51.498404,-22.690048],[-51.471434,-22.676647],[-51.445795,-22.652778],[-51.424223,-22.653027],[-51.401446,-22.667417],[-51.386974,-22.665111],[-51.386039,-22.664962],[-51.382529,-22.662394],[-51.37321,-22.657687],[-51.332785,-22.667025],[-51.321546,-22.669905],[-51.305796,-22.673942],[-51.296116,-22.670851],[-51.283422,-22.666791],[-51.280928,-22.665994],[-51.263287,-22.66857],[-51.246591,-22.684713],[-51.240719,-22.696455],[-51.234847,-22.708198],[-51.211557,-22.723725],[-51.186515,-22.729407],[-51.175531,-22.737603],[-51.174703,-22.738181],[-51.162071,-22.747017],[-51.154396,-22.752386],[-51.113088,-22.760365],[-51.057114,-22.765573],[-51.00362,-22.792186],[-50.994087,-22.791664],[-50.978094,-22.783051],[-50.976339,-22.78333],[-50.961117,-22.785743],[-50.94463,-22.803589],[-50.939134,-22.80438],[-50.92627,-22.798758],[-50.918559,-22.795386],[-50.890392,-22.795326],[-50.841886,-22.830923],[-50.832725,-22.857802],[-50.825687,-22.863368],[-50.823984,-22.864715],[-50.823252,-22.865293],[-50.822255,-22.86733],[-50.816516,-22.879055],[-50.804232,-22.88549],[-50.79602,-22.889792],[-50.792452,-22.893868],[-50.792642,-22.904632],[-50.792844,-22.905176],[-50.80565,-22.939813],[-50.802512,-22.942922],[-50.795778,-22.949596],[-50.788767,-22.948158],[-50.777452,-22.945837],[-50.758165,-22.947166],[-50.749833,-22.951012],[-50.746309,-22.955003],[-50.741095,-22.960908],[-50.72935,-22.962014],[-50.709337,-22.95295],[-50.675534,-22.900033],[-50.661794,-22.895208],[-50.648317,-22.896561],[-50.636749,-22.906261],[-50.620013,-22.911614],[-50.612264,-22.919403],[-50.608379,-22.923308],[-50.576513,-22.903486],[-50.553905,-22.91121],[-50.544428,-22.911503],[-50.540884,-22.911612],[-50.529527,-22.918616],[-50.528424,-22.924194],[-50.526399,-22.934442],[-50.520035,-22.940028],[-50.512423,-22.942823],[-50.504395,-22.94577],[-50.493769,-22.940257],[-50.487238,-22.936869],[-50.470536,-22.941703],[-50.460886,-22.944496],[-50.453468,-22.942765],[-50.44605,-22.941034],[-50.427473,-22.944507],[-50.41864,-22.933883],[-50.418556,-22.925458],[-50.418453,-22.915003],[-50.416385,-22.912771],[-50.395349,-22.906596],[-50.387621,-22.905521],[-50.379894,-22.904446],[-50.368629,-22.910716],[-50.35809,-22.916581],[-50.358558,-22.92203],[-50.344909,-22.934164],[-50.339693,-22.947585],[-50.337522,-22.947846],[-50.318003,-22.950195],[-50.310006,-22.947291],[-50.305698,-22.945726],[-50.304417,-22.943891],[-50.29992,-22.937447],[-50.28877,-22.937021],[-50.272897,-22.930513],[-50.27028,-22.931244],[-50.267665,-22.931974],[-50.246114,-22.937992],[-50.242691,-22.946871],[-50.241243,-22.950628],[-50.238154,-22.952624],[-50.233731,-22.952768],[-50.223616,-22.949644],[-50.21639,-22.947413],[-50.207425,-22.950785],[-50.203389,-22.952303],[-50.196374,-22.952634],[-50.182844,-22.95327],[-50.165323,-22.9463],[-50.158149,-22.940509],[-50.150974,-22.934718],[-50.139772,-22.937566],[-50.133025,-22.939282],[-50.112962,-22.937813],[-50.101932,-22.929368],[-50.094203,-22.923451],[-50.080359,-22.921307],[-50.080315,-22.921336],[-50.071059,-22.927636],[-50.066978,-22.927026],[-50.051575,-22.906963],[-50.046148,-22.902007],[-50.031341,-22.908459],[-50.024187,-22.909418],[-50.024163,-22.909421],[-50.017033,-22.910376],[-50.005226,-22.926865],[-49.99576,-22.929046],[-49.990192,-22.92391],[-49.993557,-22.91304],[-49.997288,-22.900983],[-49.985672,-22.897021],[-49.964638,-22.916018],[-49.962763,-22.9232],[-49.960888,-22.930382],[-49.963112,-22.937187],[-49.965919,-22.945778],[-49.973555,-22.954252],[-49.971662,-22.958741],[-49.964708,-22.966313],[-49.954058,-22.97791],[-49.930271,-22.982542],[-49.901044,-22.998664],[-49.899644,-23.004099],[-49.90173,-23.007998],[-49.90387,-23.009679],[-49.908974,-23.013688],[-49.915907,-23.035961],[-49.913509,-23.043294],[-49.911112,-23.050628],[-49.896208,-23.055356],[-49.884874,-23.064428],[-49.882413,-23.06121],[-49.88121,-23.059638],[-49.875148,-23.065396],[-49.871059,-23.069279],[-49.866925,-23.071202],[-49.850089,-23.072766],[-49.849611,-23.072559],[-49.83317,-23.065454],[-49.8265,-23.074379],[-49.819622,-23.07626],[-49.819055,-23.076415],[-49.814863,-23.078303],[-49.812223,-23.079493],[-49.809394,-23.086142],[-49.808615,-23.087973],[-49.806114,-23.093845],[-49.795886,-23.094082],[-49.795084,-23.0941],[-49.794584,-23.094847],[-49.789914,-23.101826],[-49.777866,-23.100892],[-49.762459,-23.105085],[-49.757048,-23.101428],[-49.750893,-23.097268],[-49.742301,-23.098948],[-49.740867,-23.098797],[-49.726584,-23.107902],[-49.725947,-23.111113],[-49.730331,-23.122131],[-49.734417,-23.132397],[-49.730001,-23.140955],[-49.716004,-23.147901],[-49.709335,-23.156345],[-49.700907,-23.152541],[-49.703058,-23.157816],[-49.697771,-23.163642],[-49.684256,-23.164273],[-49.67783,-23.164573],[-49.680474,-23.169143],[-49.682775,-23.173122],[-49.674568,-23.177871],[-49.674441,-23.177945],[-49.653403,-23.211412],[-49.654082,-23.227267],[-49.64923,-23.237078],[-49.647744,-23.2379],[-49.644609,-23.239635],[-49.645386,-23.244118],[-49.646611,-23.251193],[-49.639594,-23.255838],[-49.62779,-23.280895],[-49.625322,-23.286131],[-49.6309,-23.303944],[-49.625988,-23.312451],[-49.622786,-23.317994],[-49.621247,-23.331401],[-49.625659,-23.338196],[-49.62895,-23.343267],[-49.635724,-23.33928],[-49.637107,-23.349226],[-49.633374,-23.355245],[-49.632949,-23.355928],[-49.62465,-23.355251],[-49.611679,-23.354193],[-49.594789,-23.366444],[-49.59545,-23.374703],[-49.589913,-23.382298],[-49.59106,-23.388098],[-49.602834,-23.383411],[-49.60516,-23.38426],[-49.62045,-23.389849],[-49.618872,-23.396485],[-49.604943,-23.393949],[-49.598183,-23.399046],[-49.601791,-23.400736],[-49.603849,-23.401895],[-49.603186,-23.40732],[-49.594089,-23.406376],[-49.593171,-23.406281],[-49.589094,-23.415198],[-49.57983,-23.414575],[-49.580301,-23.431092],[-49.566613,-23.426741],[-49.571164,-23.434507],[-49.56853,-23.439809],[-49.572524,-23.443383],[-49.57912,-23.43613],[-49.587113,-23.435534],[-49.589615,-23.435347],[-49.595152,-23.43989],[-49.602588,-23.450947],[-49.598723,-23.457266],[-49.599819,-23.461464],[-49.602084,-23.470145],[-49.59809,-23.476664],[-49.601309,-23.477509],[-49.602777,-23.477894],[-49.606773,-23.475765],[-49.614392,-23.471707],[-49.613537,-23.486496],[-49.620889,-23.492832],[-49.616963,-23.501422],[-49.6141,-23.507682],[-49.618865,-23.506213],[-49.621224,-23.505486],[-49.628701,-23.51174],[-49.625252,-23.519401],[-49.62372,-23.522807],[-49.611835,-23.528908],[-49.599718,-23.53513],[-49.602184,-23.538621],[-49.604649,-23.542113],[-49.602165,-23.546785],[-49.598745,-23.553218],[-49.602141,-23.557685],[-49.607503,-23.564737],[-49.603133,-23.571151],[-49.600689,-23.574739],[-49.601533,-23.582206],[-49.609924,-23.587363],[-49.615927,-23.591052],[-49.618963,-23.601683],[-49.620638,-23.606563],[-49.617553,-23.612129],[-49.614779,-23.613462],[-49.613659,-23.614],[-49.613438,-23.617834],[-49.613153,-23.622795],[-49.611819,-23.623112],[-49.60581,-23.624536],[-49.607753,-23.633573],[-49.608474,-23.634021],[-49.616649,-23.639102],[-49.610815,-23.64078],[-49.602889,-23.643059],[-49.6014,-23.651453],[-49.592029,-23.655371],[-49.584983,-23.658316],[-49.585249,-23.663342],[-49.580658,-23.66397],[-49.581949,-23.667797],[-49.582629,-23.669814],[-49.579244,-23.67777],[-49.574789,-23.675701],[-49.574191,-23.675423],[-49.574378,-23.676138],[-49.575363,-23.67991],[-49.567632,-23.687546],[-49.564756,-23.686396],[-49.56125,-23.684995],[-49.560903,-23.690505],[-49.560834,-23.691597],[-49.560045,-23.69142],[-49.556777,-23.690685],[-49.554759,-23.700768],[-49.549358,-23.703227],[-49.554047,-23.72089],[-49.55414,-23.722794],[-49.548605,-23.736027],[-49.55187,-23.73771],[-49.560329,-23.733375],[-49.563557,-23.731721],[-49.566934,-23.740009],[-49.563461,-23.749408],[-49.571503,-23.754594],[-49.560183,-23.760875],[-49.563334,-23.763704],[-49.56601,-23.777316],[-49.569574,-23.778118],[-49.565334,-23.780278],[-49.560474,-23.790437],[-49.561085,-23.793581],[-49.56261,-23.801439],[-49.560445,-23.808582],[-49.55958,-23.811435],[-49.561876,-23.818075],[-49.575253,-23.82656],[-49.577935,-23.826588],[-49.586672,-23.826679],[-49.592463,-23.829775],[-49.592133,-23.835656],[-49.592087,-23.836484],[-49.586576,-23.841584],[-49.595259,-23.837652],[-49.598082,-23.836373],[-49.607548,-23.838884],[-49.602989,-23.841579],[-49.600576,-23.843005],[-49.594993,-23.846305],[-49.598085,-23.848807],[-49.599935,-23.848679],[-49.607606,-23.848147],[-49.610245,-23.851198],[-49.599226,-23.856593],[-49.601976,-23.867788],[-49.597456,-23.870607],[-49.597453,-23.87061],[-49.592939,-23.873426],[-49.591754,-23.875845],[-49.585572,-23.888477],[-49.581717,-23.885068],[-49.573111,-23.877458],[-49.575695,-23.890793],[-49.576643,-23.895686],[-49.570526,-23.898728],[-49.568702,-23.899635],[-49.564881,-23.907393],[-49.56269,-23.911843],[-49.561782,-23.912151],[-49.553974,-23.914803],[-49.556059,-23.920937],[-49.556501,-23.922235],[-49.555183,-23.922283],[-49.545944,-23.922615],[-49.535394,-23.927803],[-49.531522,-23.928578],[-49.5302,-23.921967],[-49.522519,-23.916543],[-49.513837,-23.923281],[-49.51114,-23.925373],[-49.513889,-23.930524],[-49.507557,-23.933224],[-49.511723,-23.937192],[-49.517401,-23.936018],[-49.523978,-23.934657],[-49.520611,-23.945606],[-49.51419,-23.944114],[-49.513387,-23.943927],[-49.502902,-23.948126],[-49.50498,-23.954341],[-49.499429,-23.958806],[-49.507212,-23.961709],[-49.513244,-23.963959],[-49.515705,-23.969453],[-49.510277,-23.971461],[-49.503861,-23.968439],[-49.503059,-23.968062],[-49.493201,-23.977105],[-49.495358,-23.985341],[-49.497453,-23.99334],[-49.492001,-23.993013],[-49.491689,-23.992994],[-49.485904,-23.999931],[-49.485829,-24.006081],[-49.480083,-24.005674],[-49.483014,-24.01143],[-49.484337,-24.011868],[-49.490902,-24.01404],[-49.485666,-24.016136],[-49.489665,-24.018161],[-49.486666,-24.024104],[-49.481057,-24.023512],[-49.479206,-24.019352],[-49.479029,-24.018953],[-49.473893,-24.019563],[-49.473373,-24.02562],[-49.47327,-24.026819],[-49.472245,-24.026831],[-49.462955,-24.026939],[-49.462438,-24.037369],[-49.462434,-24.037446],[-49.452956,-24.052685],[-49.450361,-24.055021],[-49.448071,-24.055595],[-49.437351,-24.058285],[-49.438495,-24.068253],[-49.429297,-24.068212],[-49.434477,-24.074365],[-49.434723,-24.074657],[-49.434033,-24.074977],[-49.428523,-24.07754],[-49.428936,-24.08065],[-49.429772,-24.08694],[-49.41721,-24.091104],[-49.404393,-24.095353],[-49.407329,-24.097431],[-49.405354,-24.101397],[-49.40451,-24.103093],[-49.408572,-24.107795],[-49.393091,-24.114453],[-49.388838,-24.118873],[-49.386656,-24.115683],[-49.381701,-24.116654],[-49.377521,-24.117165],[-49.377008,-24.117227],[-49.370358,-24.113886],[-49.368321,-24.116142],[-49.362341,-24.119156],[-49.361612,-24.126799],[-49.341023,-24.137837],[-49.336789,-24.137192],[-49.336307,-24.144412],[-49.331972,-24.149622],[-49.33792,-24.154948],[-49.339857,-24.156682],[-49.339369,-24.174377],[-49.34569,-24.191041],[-49.344629,-24.193693],[-49.341055,-24.202624],[-49.347748,-24.20675],[-49.355377,-24.211454],[-49.350188,-24.220303],[-49.323359,-24.235942],[-49.32161,-24.236961],[-49.320826,-24.238974],[-49.319136,-24.243309],[-49.317295,-24.2432],[-49.312214,-24.242899],[-49.304885,-24.250935],[-49.307482,-24.256629],[-49.308185,-24.258171],[-49.306558,-24.258297],[-49.302139,-24.25864],[-49.298221,-24.267558],[-49.299364,-24.271291],[-49.300745,-24.275804],[-49.294715,-24.284923],[-49.298173,-24.287319],[-49.288278,-24.291312],[-49.288255,-24.291321],[-49.288262,-24.291341],[-49.289515,-24.294918],[-49.282964,-24.30754],[-49.269111,-24.306838],[-49.253986,-24.317777],[-49.24995,-24.318867],[-49.248388,-24.330015],[-49.230726,-24.329895],[-49.223798,-24.339729],[-49.215386,-24.338803],[-49.205379,-24.337702],[-49.200279,-24.343974],[-49.224428,-24.364744],[-49.240912,-24.384644],[-49.251879,-24.403455],[-49.253377,-24.407255],[-49.249745,-24.413364],[-49.242606,-24.401925],[-49.237276,-24.404208],[-49.236172,-24.407244],[-49.235328,-24.409566],[-49.234973,-24.410542],[-49.235523,-24.411699],[-49.238977,-24.418959],[-49.240193,-24.421515],[-49.252155,-24.433606],[-49.250029,-24.444921],[-49.251821,-24.451025],[-49.253044,-24.455191],[-49.249231,-24.456469],[-49.247421,-24.457075],[-49.244846,-24.457938],[-49.244834,-24.46461],[-49.24798,-24.464229],[-49.246693,-24.468651],[-49.259064,-24.472567],[-49.263361,-24.473927],[-49.270693,-24.482938],[-49.27022,-24.485526],[-49.269078,-24.491774],[-49.279684,-24.49551],[-49.295013,-24.500909],[-49.290799,-24.507235],[-49.286584,-24.513561],[-49.28744,-24.526337],[-49.280873,-24.536712],[-49.291772,-24.543804],[-49.292071,-24.552495],[-49.300479,-24.548228],[-49.305085,-24.54589],[-49.309297,-24.552911],[-49.315499,-24.555006],[-49.314102,-24.561924],[-49.317191,-24.56614],[-49.312703,-24.575825],[-49.310556,-24.580457],[-49.311862,-24.585569],[-49.311936,-24.585603],[-49.316048,-24.587488],[-49.311544,-24.590607],[-49.303277,-24.596331],[-49.310566,-24.60246],[-49.312639,-24.604204],[-49.314186,-24.613764],[-49.308908,-24.618954],[-49.306586,-24.621238],[-49.308351,-24.624494],[-49.315939,-24.638493],[-49.306583,-24.642085],[-49.305887,-24.642352],[-49.306502,-24.642891],[-49.309282,-24.645322],[-49.306099,-24.646904],[-49.301167,-24.649354],[-49.299135,-24.654456],[-49.303574,-24.657592],[-49.311407,-24.663124],[-49.304688,-24.668406],[-49.304824,-24.672141],[-49.293948,-24.67418],[-49.275452,-24.693118],[-49.262337,-24.691388],[-49.25628,-24.695275],[-49.240231,-24.697988],[-49.208421,-24.700343],[-49.20611,-24.697818],[-49.204372,-24.695919],[-49.204403,-24.693805],[-49.204523,-24.685463],[-49.194195,-24.682771],[-49.185163,-24.672203],[-49.174355,-24.671634],[-49.170355,-24.674417],[-49.169353,-24.675114],[-49.163281,-24.673379],[-49.156853,-24.671543],[-49.134591,-24.675017],[-49.128767,-24.680653],[-49.124542,-24.682375],[-49.11111,-24.687849],[-49.109548,-24.6809],[-49.108457,-24.676054],[-49.101583,-24.675243],[-49.097836,-24.679852],[-49.096645,-24.681318],[-49.087164,-24.679831],[-49.086776,-24.679129],[-49.082692,-24.671746],[-49.075337,-24.672737],[-49.072451,-24.678191],[-49.069662,-24.683465],[-49.055322,-24.682147],[-49.050835,-24.679003],[-49.045022,-24.665598],[-49.036912,-24.659919],[-49.039023,-24.652864],[-49.034082,-24.64955],[-49.033961,-24.648973],[-49.032388,-24.641441],[-49.039356,-24.643408],[-49.041764,-24.640038],[-49.03293,-24.633966],[-49.017881,-24.642117],[-49.00425,-24.633923],[-48.999845,-24.636179],[-49.004919,-24.638635],[-49.008291,-24.653276],[-49.009314,-24.657717],[-48.996378,-24.655758],[-48.994989,-24.656029],[-48.989635,-24.657077],[-48.989075,-24.659147],[-48.987554,-24.664768],[-48.977591,-24.665202],[-48.976374,-24.665255],[-48.976142,-24.665966],[-48.97444,-24.671168],[-48.963522,-24.67262],[-48.962804,-24.672715],[-48.96266,-24.673074],[-48.957965,-24.684781],[-48.948084,-24.676077],[-48.945053,-24.673408],[-48.932251,-24.674115],[-48.921943,-24.674685],[-48.914774,-24.68241],[-48.910755,-24.678483],[-48.911968,-24.672947],[-48.905243,-24.670872],[-48.901611,-24.669751],[-48.878289,-24.667891],[-48.864908,-24.666824],[-48.850971,-24.674132],[-48.848335,-24.671936],[-48.852843,-24.665077],[-48.85802,-24.657198],[-48.852824,-24.655659],[-48.84339,-24.662102],[-48.839915,-24.664476],[-48.832682,-24.65865],[-48.828271,-24.655098],[-48.824287,-24.655944],[-48.820303,-24.656789],[-48.818689,-24.659605],[-48.810917,-24.673167],[-48.799243,-24.674887],[-48.787724,-24.680686],[-48.778165,-24.69623],[-48.768575,-24.694774],[-48.765191,-24.690342],[-48.7568,-24.679353],[-48.752604,-24.68188],[-48.753066,-24.689206],[-48.753347,-24.693665],[-48.744107,-24.692609],[-48.736548,-24.686121],[-48.734054,-24.683981],[-48.731841,-24.685243],[-48.729627,-24.686505],[-48.726801,-24.685815],[-48.70327,-24.680069],[-48.693295,-24.689622],[-48.68988,-24.692892],[-48.689509,-24.690052],[-48.687797,-24.676966],[-48.693604,-24.67018],[-48.68778,-24.668736],[-48.676499,-24.671106],[-48.670991,-24.678798],[-48.674465,-24.68355],[-48.671627,-24.686807],[-48.676146,-24.691571],[-48.676576,-24.692024],[-48.671025,-24.698167],[-48.67671,-24.697907],[-48.674476,-24.701312],[-48.660848,-24.705954],[-48.657694,-24.691558],[-48.641161,-24.689165],[-48.643557,-24.683846],[-48.64483,-24.68102],[-48.633071,-24.676933],[-48.630175,-24.678588],[-48.627692,-24.680007],[-48.622754,-24.674949],[-48.616137,-24.668171],[-48.612846,-24.669578],[-48.611596,-24.669478],[-48.608977,-24.669267],[-48.601726,-24.668684],[-48.595463,-24.674169],[-48.588771,-24.680029],[-48.586579,-24.677391],[-48.581366,-24.671118],[-48.578873,-24.683417],[-48.578545,-24.685035],[-48.573101,-24.69015],[-48.567824,-24.695109],[-48.567995,-24.696107],[-48.568715,-24.700309],[-48.55963,-24.710205],[-48.554987,-24.709784],[-48.551611,-24.709477],[-48.551279,-24.712986],[-48.550977,-24.716181],[-48.54665,-24.716983],[-48.544111,-24.717453],[-48.543829,-24.719419],[-48.543072,-24.724701],[-48.538139,-24.726892],[-48.532039,-24.729601],[-48.531657,-24.729771],[-48.528707,-24.731081],[-48.528746,-24.73116],[-48.531298,-24.736265],[-48.528362,-24.738511],[-48.522005,-24.735571],[-48.51102,-24.740062],[-48.50995,-24.739132],[-48.504551,-24.734434],[-48.498829,-24.73846],[-48.503493,-24.739634],[-48.501858,-24.744219],[-48.507215,-24.751869],[-48.506055,-24.763429],[-48.511006,-24.763458],[-48.511602,-24.763461],[-48.516217,-24.768055],[-48.516241,-24.771872],[-48.51629,-24.779642],[-48.529766,-24.784622],[-48.5339,-24.787262],[-48.538034,-24.789903],[-48.55527,-24.8057],[-48.558715,-24.820586],[-48.557703,-24.82138],[-48.555273,-24.823289],[-48.557594,-24.824926],[-48.561802,-24.827892],[-48.56733,-24.846996],[-48.56399,-24.855668],[-48.566193,-24.863453],[-48.556556,-24.865569],[-48.552911,-24.866369],[-48.549212,-24.866996],[-48.546354,-24.873257],[-48.548622,-24.8793],[-48.554849,-24.88273],[-48.557859,-24.884081],[-48.558959,-24.888732],[-48.555831,-24.892567],[-48.558824,-24.900679],[-48.56251,-24.895457],[-48.56324,-24.894423],[-48.571576,-24.894508],[-48.572351,-24.902377],[-48.56694,-24.90332],[-48.566661,-24.903368],[-48.565982,-24.916304],[-48.569261,-24.920583],[-48.569806,-24.930602],[-48.562448,-24.938851],[-48.568906,-24.943283],[-48.562728,-24.949932],[-48.568341,-24.952606],[-48.572163,-24.954428],[-48.570196,-24.956557],[-48.567463,-24.959515],[-48.567036,-24.971666],[-48.577006,-24.984131],[-48.583656,-24.985225],[-48.587874,-24.985919],[-48.588301,-24.989883],[-48.588778,-24.994312],[-48.594645,-24.99562],[-48.597454,-25.002828],[-48.598,-25.01856],[-48.588516,-25.019193],[-48.588387,-25.019202],[-48.588853,-25.025733],[-48.5891,-25.029186],[-48.584345,-25.032241],[-48.581061,-25.03435],[-48.581221,-25.03675],[-48.582178,-25.051061],[-48.571479,-25.050813],[-48.568574,-25.050746],[-48.565693,-25.056133],[-48.559184,-25.060156],[-48.55936,-25.074827],[-48.559393,-25.077455],[-48.555859,-25.083793],[-48.554793,-25.08454],[-48.542169,-25.09339],[-48.534833,-25.098533],[-48.528101,-25.10029],[-48.521092,-25.086029],[-48.520798,-25.085431],[-48.516362,-25.084377],[-48.511927,-25.083324],[-48.50409,-25.069488],[-48.497924,-25.058601],[-48.491101,-25.052727],[-48.490273,-25.052723],[-48.48281,-25.052686],[-48.48368,-25.040114],[-48.473566,-25.012048],[-48.434437,-24.991045],[-48.429747,-24.990473],[-48.417581,-24.988989],[-48.416551,-24.988863],[-48.410589,-24.979624],[-48.394311,-24.99051],[-48.379437,-24.995392],[-48.377535,-25.00134],[-48.377206,-25.002369],[-48.370612,-25.007281],[-48.354266,-25.019456],[-48.352588,-25.022748],[-48.35001,-25.027805],[-48.350745,-25.03598],[-48.338919,-25.035536],[-48.338598,-25.035524],[-48.337453,-25.037604],[-48.336575,-25.039199],[-48.336412,-25.039072],[-48.331989,-25.035633],[-48.323659,-25.036242],[-48.323867,-25.053882],[-48.325518,-25.054443],[-48.333228,-25.057064],[-48.333188,-25.070067],[-48.317293,-25.056041],[-48.31472,-25.048302],[-48.313435,-25.044437],[-48.300438,-25.030759],[-48.298895,-25.023897],[-48.292342,-25.02392],[-48.289892,-25.027365],[-48.28455,-25.034877],[-48.277827,-25.0326],[-48.277252,-25.019366],[-48.277084,-25.01549],[-48.269104,-24.997029],[-48.262851,-24.992298],[-48.259434,-24.997152],[-48.254423,-24.996015],[-48.258606,-24.986582],[-48.251197,-24.978246],[-48.245295,-24.988885],[-48.240178,-24.991498],[-48.235261,-24.998553],[-48.232674,-24.999499],[-48.230512,-25.000289],[-48.228992,-25.000845],[-48.22975,-25.002204],[-48.232079,-25.006375],[-48.227664,-25.007451],[-48.222877,-25.008618],[-48.226232,-25.011052],[-48.231468,-25.014851],[-48.231074,-25.020282],[-48.220261,-25.026064],[-48.21446,-25.029167],[-48.209126,-25.02825],[-48.209796,-25.03585],[-48.214245,-25.041193],[-48.215055,-25.042166],[-48.211617,-25.05868],[-48.215575,-25.076167],[-48.210611,-25.079167],[-48.209659,-25.079742],[-48.209922,-25.080407],[-48.211715,-25.084942],[-48.199157,-25.101935],[-48.195946,-25.10557],[-48.194232,-25.107511],[-48.194204,-25.108706],[-48.194106,-25.113002],[-48.183909,-25.12543],[-48.181213,-25.128715],[-48.181204,-25.129419],[-48.181161,-25.13333],[-48.176324,-25.13662],[-48.166513,-25.143292],[-48.156404,-25.144145],[-48.161717,-25.153694],[-48.166359,-25.155362],[-48.168236,-25.156036],[-48.167939,-25.159413],[-48.167238,-25.167398],[-48.175142,-25.177878],[-48.177912,-25.181551],[-48.192881,-25.18936],[-48.186718,-25.198397],[-48.177764,-25.206212],[-48.16672,-25.208262],[-48.161715,-25.209192],[-48.156913,-25.217267],[-48.150757,-25.227619],[-48.114404,-25.250194],[-48.10708,-25.245949],[-48.100647,-25.242388],[-48.0951,-25.241465],[-48.094679,-25.241395],[-48.089485,-25.240533],[-48.085398,-25.239854],[-48.084654,-25.240433],[-48.081749,-25.242696],[-48.075221,-25.240454],[-48.065685,-25.239839],[-48.061559,-25.239482],[-48.058805,-25.235711],[-48.056513,-25.232575],[-48.059046,-25.22895],[-48.05762,-25.22132],[-48.056904,-25.217878],[-48.053534,-25.220636],[-48.04914,-25.224229],[-48.046596,-25.22614],[-48.044098,-25.223224],[-48.041176,-25.219814],[-48.035245,-25.218871],[-48.027616,-25.221301],[-48.029464,-25.225693],[-48.026962,-25.227564],[-48.024457,-25.229437],[-48.02308,-25.230467],[-48.030596,-25.237004],[-48.037323,-25.242854],[-48.05341,-25.256845],[-48.071442,-25.272528],[-48.085801,-25.285149],[-48.097865,-25.299173],[-48.098246,-25.303524],[-48.098358,-25.306547],[-48.09852,-25.310889],[-48.099343,-25.31585],[-48.131795,-25.342866],[-48.149158,-25.36031],[-48.152463,-25.363631],[-48.156901,-25.369355],[-48.181048,-25.400508],[-48.199105,-25.430135],[-48.208277,-25.460254],[-48.21255,-25.464023],[-48.216822,-25.467793],[-48.239983,-25.471002],[-48.248397,-25.472167],[-48.256811,-25.473333],[-48.276207,-25.483354],[-48.286557,-25.488701],[-48.296599,-25.4905],[-48.309261,-25.492769],[-48.301487,-25.497688],[-48.293372,-25.502822],[-48.283555,-25.509033],[-48.276429,-25.513542],[-48.283651,-25.531514],[-48.287421,-25.540898],[-48.289416,-25.545864],[-48.293456,-25.548202],[-48.295262,-25.549247],[-48.300314,-25.559131],[-48.300176,-25.559587],[-48.297938,-25.566998],[-48.302827,-25.565759],[-48.31298,-25.576094],[-48.319724,-25.58337],[-48.32223,-25.584887],[-48.358041,-25.585436],[-48.367231,-25.589538],[-48.376633,-25.593734],[-48.37731,-25.594036],[-48.380324,-25.595468],[-48.414392,-25.623479],[-48.430702,-25.643969],[-48.434695,-25.649012],[-48.434697,-25.649015],[-48.438688,-25.654056],[-48.455486,-25.680526],[-48.458539,-25.68535],[-48.461594,-25.690173],[-48.474199,-25.710082],[-48.476318,-25.713429],[-48.476346,-25.713473],[-48.478213,-25.716788],[-48.524314,-25.798612],[-48.52587,-25.801534],[-48.52715,-25.805898],[-48.529858,-25.815125],[-48.537107,-25.840127],[-48.534676,-25.846246],[-48.53467,-25.849504],[-48.538652,-25.848677],[-48.541433,-25.847315],[-48.543924,-25.848702],[-48.549049,-25.851553],[-48.554236,-25.853351],[-48.554851,-25.853562],[-48.556437,-25.854104],[-48.563524,-25.856528],[-48.564311,-25.862047],[-48.562249,-25.870619],[-48.563724,-25.874054],[-48.56704,-25.885345],[-48.563309,-25.887776],[-48.563284,-25.887793],[-48.559175,-25.890387],[-48.567952,-25.906072],[-48.575429,-25.919387],[-48.57591,-25.920243],[-48.576972,-25.92315],[-48.578035,-25.926057],[-48.589577,-25.957641],[-48.594269,-25.970545],[-48.590417,-25.976436],[-48.593948,-25.976585],[-48.59739,-25.976681],[-48.599357,-25.976736],[-48.601193,-25.98023],[-48.610542,-25.979013],[-48.609751,-25.983702],[-48.613221,-25.980666],[-48.615229,-25.980922],[-48.620161,-25.981553],[-48.620207,-25.977864],[-48.620254,-25.974028],[-48.622726,-25.976317],[-48.62337,-25.976913],[-48.633036,-25.976958],[-48.632553,-25.97028],[-48.632521,-25.969845],[-48.637715,-25.967039],[-48.638457,-25.963609],[-48.642921,-25.955779],[-48.653397,-25.962208],[-48.661782,-25.968094],[-48.662704,-25.973602],[-48.66469,-25.975233],[-48.669002,-25.978773],[-48.672096,-25.977994],[-48.675659,-25.977097],[-48.680179,-25.98056],[-48.706139,-25.982477],[-48.710453,-25.982795],[-48.884428,-25.980753],[-48.960277,-25.979268],[-48.953449,-25.986332],[-48.950227,-25.989667],[-48.956497,-25.992999],[-48.961091,-25.990554],[-48.961311,-25.990437],[-48.9614,-25.987542],[-48.961518,-25.983708],[-48.967703,-25.986401],[-48.978018,-25.988812],[-48.979905,-25.997363],[-48.985977,-26.000234],[-48.983996,-26.003571],[-48.983714,-26.004046],[-48.984679,-26.004055],[-48.988416,-26.004091],[-48.996284,-26.010248],[-48.997663,-26.011327],[-49.001197,-26.010784],[-49.002702,-26.010552],[-49.003073,-26.010988],[-49.006638,-26.015183],[-49.020063,-26.015597],[-49.021976,-26.013048],[-49.029181,-26.00345],[-49.040448,-26.003533],[-49.04414,-26.013332],[-49.046139,-26.018637],[-49.051332,-26.016818],[-49.054738,-26.020048],[-49.06821,-26.008988],[-49.069057,-26.005527],[-49.0706,-25.999214],[-49.075433,-26.004698],[-49.076445,-26.005847],[-49.081627,-26.004724],[-49.090447,-26.002814],[-49.091451,-26.004766],[-49.093843,-26.009418],[-49.099181,-26.008405],[-49.101836,-26.004886],[-49.10657,-25.99861],[-49.11241,-26.004771],[-49.125072,-25.995744],[-49.131207,-25.999802],[-49.129128,-26.003911],[-49.132072,-26.006731],[-49.140769,-26.015061],[-49.142391,-26.010634],[-49.146323,-26.009415],[-49.147501,-26.013354],[-49.150757,-26.009376],[-49.16026,-26.007463],[-49.161641,-26.007185],[-49.16669,-26.000664],[-49.174795,-26.001348],[-49.180085,-26.007745],[-49.180708,-26.008498],[-49.182216,-26.008464],[-49.19149,-26.008261],[-49.191335,-26.011803],[-49.191288,-26.012878],[-49.19518,-26.015402],[-49.206817,-26.017469],[-49.207075,-26.017515],[-49.207104,-26.017574],[-49.210699,-26.025014],[-49.217113,-26.023547],[-49.224935,-26.030496],[-49.229278,-26.030383],[-49.234065,-26.030257],[-49.237523,-26.030853],[-49.236482,-26.03688],[-49.242183,-26.043617],[-49.252738,-26.049671],[-49.254834,-26.055678],[-49.254255,-26.057646],[-49.253067,-26.061681],[-49.256847,-26.063665],[-49.255541,-26.067159],[-49.262672,-26.066834],[-49.266454,-26.066661],[-49.265332,-26.069545],[-49.264563,-26.071525],[-49.268483,-26.075916],[-49.265484,-26.078526],[-49.273956,-26.077794],[-49.274641,-26.077735],[-49.274487,-26.078302],[-49.27364,-26.081428],[-49.276615,-26.082523],[-49.277922,-26.081588],[-49.282308,-26.078449],[-49.286534,-26.078202],[-49.294036,-26.084532],[-49.29487,-26.091593],[-49.291277,-26.093057],[-49.293218,-26.09622],[-49.293675,-26.096965],[-49.289294,-26.102204],[-49.300253,-26.103846],[-49.297596,-26.109355],[-49.302897,-26.113031],[-49.30427,-26.109531],[-49.317551,-26.109297],[-49.334252,-26.119758],[-49.333791,-26.124391],[-49.341691,-26.128682],[-49.346803,-26.127609],[-49.350435,-26.133434],[-49.354039,-26.134666],[-49.359673,-26.137212],[-49.359804,-26.140215],[-49.362888,-26.14181],[-49.3665,-26.143679],[-49.367281,-26.144083],[-49.368227,-26.148933],[-49.371276,-26.148395],[-49.369799,-26.15546],[-49.372427,-26.153106],[-49.38698,-26.155462],[-49.389783,-26.156994],[-49.393023,-26.153601],[-49.395252,-26.151267],[-49.399563,-26.15027],[-49.406267,-26.161143],[-49.416156,-26.152714],[-49.416759,-26.164969],[-49.419929,-26.16352],[-49.421227,-26.166174],[-49.428048,-26.167758],[-49.432806,-26.170169],[-49.43608,-26.171828],[-49.436994,-26.169538],[-49.439334,-26.163681],[-49.458671,-26.162234],[-49.464078,-26.172859],[-49.478996,-26.185403],[-49.486428,-26.180059],[-49.485402,-26.184437],[-49.489406,-26.190765],[-49.486432,-26.194113],[-49.490183,-26.199124],[-49.493262,-26.203237],[-49.499472,-26.202989],[-49.497163,-26.206691],[-49.494445,-26.21105],[-49.490598,-26.209577],[-49.490432,-26.213713],[-49.497921,-26.218212],[-49.496072,-26.220813],[-49.502638,-26.221491],[-49.503883,-26.226095],[-49.511365,-26.220931],[-49.519462,-26.226734],[-49.524347,-26.221584],[-49.528669,-26.217028],[-49.528919,-26.22378],[-49.528929,-26.224069],[-49.529091,-26.22384],[-49.535715,-26.214451],[-49.539681,-26.213275],[-49.542364,-26.223265],[-49.536382,-26.226372],[-49.536147,-26.226493],[-49.537853,-26.229599],[-49.540481,-26.227795],[-49.545186,-26.224565],[-49.551395,-26.22458],[-49.547484,-26.229233],[-49.548862,-26.230705],[-49.554595,-26.236831],[-49.560681,-26.23481],[-49.566768,-26.232788],[-49.577426,-26.213509],[-49.579708,-26.227643],[-49.590344,-26.229662],[-49.587105,-26.216958],[-49.592144,-26.222875],[-49.598229,-26.220868],[-49.601767,-26.227186],[-49.605656,-26.211345],[-49.611633,-26.213386],[-49.614267,-26.206945],[-49.616742,-26.213615],[-49.621097,-26.2152],[-49.628924,-26.211149],[-49.634748,-26.208134],[-49.633238,-26.206949],[-49.625497,-26.20087],[-49.629912,-26.190489],[-49.636386,-26.190523],[-49.63358,-26.201341],[-49.636795,-26.203487],[-49.645201,-26.2091],[-49.648548,-26.207794],[-49.648222,-26.195376],[-49.64822,-26.195323],[-49.653245,-26.192555],[-49.652711,-26.186709],[-49.660047,-26.186515],[-49.662516,-26.189979],[-49.663342,-26.191138],[-49.667352,-26.188152],[-49.671611,-26.184981],[-49.672117,-26.186353],[-49.673796,-26.190919],[-49.680126,-26.185658],[-49.689346,-26.187962],[-49.68291,-26.181826],[-49.67627,-26.175497],[-49.688331,-26.176201],[-49.69849,-26.161033],[-49.71019,-26.153892],[-49.717987,-26.161207],[-49.727263,-26.169911],[-49.736517,-26.156601],[-49.729177,-26.148507],[-49.724409,-26.14325],[-49.735035,-26.141858],[-49.735358,-26.141815],[-49.739807,-26.138052],[-49.748109,-26.139469],[-49.749504,-26.128837],[-49.750649,-26.120106],[-49.764162,-26.11335],[-49.767551,-26.104296],[-49.775613,-26.10135],[-49.778275,-26.106931],[-49.767858,-26.109899],[-49.77216,-26.116505],[-49.773309,-26.118269],[-49.777947,-26.118898],[-49.781763,-26.111277],[-49.787217,-26.100382],[-49.787547,-26.108006],[-49.787663,-26.110676],[-49.792477,-26.112654],[-49.7992,-26.109246],[-49.80405,-26.107203],[-49.806078,-26.097056],[-49.807939,-26.087744],[-49.814053,-26.092344],[-49.815604,-26.09351],[-49.824193,-26.092482],[-49.830265,-26.082759],[-49.830176,-26.069486],[-49.830173,-26.069049],[-49.83037,-26.069191],[-49.839718,-26.075901],[-49.843129,-26.072456],[-49.833328,-26.06668],[-49.833171,-26.064917],[-49.832087,-26.052703],[-49.835166,-26.051997],[-49.839541,-26.059486],[-49.842102,-26.063867],[-49.861765,-26.054755],[-49.864187,-26.046116],[-49.870277,-26.043298],[-49.86989,-26.042661],[-49.865029,-26.034651],[-49.8913,-26.028889],[-49.895076,-26.031412],[-49.898106,-26.033436],[-49.902165,-26.028302],[-49.903662,-26.02641],[-49.914829,-26.024588],[-49.918366,-26.02584],[-49.934833,-26.031669],[-49.940191,-26.025016],[-49.938313,-26.02281],[-49.933921,-26.01765],[-49.93842,-26.012309],[-49.941727,-26.008382],[-49.95178,-26.018142],[-49.952697,-26.019032],[-49.959035,-26.020304],[-49.947516,-26.03048],[-49.972206,-26.057765],[-49.977101,-26.052835],[-49.965842,-26.040132],[-49.964074,-26.024789],[-49.971503,-26.016604],[-49.990553,-26.011769],[-49.993063,-26.011132],[-49.99803,-26.015355],[-50.011056,-26.013509],[-50.011061,-26.025239],[-50.01018,-26.026633],[-50.002746,-26.038408],[-50.005845,-26.044768],[-50.031694,-26.028566],[-50.035516,-26.027536],[-50.039339,-26.026506],[-50.044046,-26.029224],[-50.056143,-26.036208],[-50.063844,-26.03314],[-50.064432,-26.032906],[-50.072456,-26.034517],[-50.072621,-26.034877],[-50.077671,-26.045904],[-50.078972,-26.0367],[-50.080749,-26.024136],[-50.084328,-26.023049],[-50.091573,-26.043185],[-50.093352,-26.044701],[-50.109898,-26.0588],[-50.110891,-26.054459],[-50.111193,-26.053136],[-50.117902,-26.051302],[-50.118889,-26.055934],[-50.120578,-26.063857],[-50.131059,-26.047871],[-50.134258,-26.042991],[-50.135912,-26.044656],[-50.14908,-26.057915],[-50.151987,-26.050787],[-50.147849,-26.04143],[-50.141516,-26.027111],[-50.151006,-26.022734],[-50.163693,-26.026522],[-50.171372,-26.024669],[-50.179267,-26.028262],[-50.18204,-26.033944],[-50.176012,-26.033616],[-50.171042,-26.04209],[-50.164169,-26.04268],[-50.163142,-26.036215],[-50.155384,-26.041562],[-50.161169,-26.053023],[-50.161727,-26.054129],[-50.170753,-26.064933],[-50.174497,-26.065506],[-50.18194,-26.078308],[-50.182038,-26.078477],[-50.192504,-26.071149],[-50.1931,-26.068084],[-50.19374,-26.064792],[-50.207541,-26.061037],[-50.209363,-26.056673],[-50.218232,-26.05644],[-50.218439,-26.056588],[-50.223618,-26.060273],[-50.23144,-26.049591],[-50.23359,-26.046655],[-50.235443,-26.035812],[-50.25103,-26.029735],[-50.251837,-26.0314],[-50.254636,-26.037172],[-50.253939,-26.040229],[-50.251525,-26.050829],[-50.264029,-26.044109],[-50.267816,-26.042074],[-50.272863,-26.047507],[-50.276375,-26.051288],[-50.287367,-26.053086],[-50.29836,-26.054883],[-50.317719,-26.06807],[-50.319858,-26.074687],[-50.321695,-26.08037],[-50.324194,-26.081088],[-50.331574,-26.083208],[-50.326197,-26.095686],[-50.325146,-26.098124],[-50.326552,-26.098277],[-50.330856,-26.098747],[-50.331972,-26.107783],[-50.328436,-26.112007],[-50.326109,-26.114786],[-50.324828,-26.123371],[-50.33269,-26.122156],[-50.333499,-26.125252],[-50.321661,-26.125481],[-50.323111,-26.134443],[-50.328245,-26.128615],[-50.332028,-26.134079],[-50.340394,-26.130151],[-50.352279,-26.11882],[-50.354719,-26.118311],[-50.359651,-26.117282],[-50.360599,-26.110018],[-50.36588,-26.111409],[-50.366978,-26.111698],[-50.365899,-26.108549],[-50.360987,-26.094217],[-50.366038,-26.086949],[-50.371088,-26.07968],[-50.399102,-26.062963],[-50.402923,-26.057246],[-50.407625,-26.058939],[-50.407795,-26.061058],[-50.408138,-26.065338],[-50.417902,-26.061409],[-50.433138,-26.060597],[-50.436246,-26.055802],[-50.439355,-26.051005],[-50.449693,-26.04348],[-50.44916,-26.039331],[-50.443002,-26.035389],[-50.453921,-26.031433],[-50.458252,-26.036272],[-50.458656,-26.036724],[-50.458705,-26.035869],[-50.459234,-26.026584],[-50.468059,-26.027056],[-50.471036,-26.020846],[-50.476761,-26.023722],[-50.476022,-26.030215],[-50.475591,-26.034007],[-50.481605,-26.030805],[-50.481132,-26.029759],[-50.479528,-26.026215],[-50.493567,-26.026645],[-50.499711,-26.023293],[-50.502186,-26.027882],[-50.504178,-26.031575],[-50.50886,-26.028484],[-50.513076,-26.025702],[-50.521381,-26.030324],[-50.54912,-26.038932],[-50.554801,-26.020936],[-50.562909,-26.006041],[-50.571305,-26.0033],[-50.59119,-26.021641],[-50.591658,-26.042059],[-50.589345,-26.043501],[-50.582872,-26.047537],[-50.579728,-26.047657],[-50.566867,-26.041207],[-50.556194,-26.041445],[-50.554903,-26.041474],[-50.550524,-26.044188],[-50.550671,-26.044956],[-50.55259,-26.054944],[-50.556337,-26.059354],[-50.586149,-26.06923],[-50.596946,-26.069958],[-50.627919,-26.062632],[-50.640515,-26.078405],[-50.645374,-26.090286],[-50.649959,-26.095245],[-50.656755,-26.102597],[-50.651271,-26.116591],[-50.64758,-26.12601],[-50.652135,-26.130632],[-50.656689,-26.135254],[-50.677793,-26.147356],[-50.698969,-26.180837],[-50.704739,-26.18618],[-50.709303,-26.189056],[-50.731307,-26.202919],[-50.714694,-26.238058],[-50.718005,-26.244286],[-50.731807,-26.249279],[-50.744999,-26.245852],[-50.745908,-26.229937],[-50.745947,-26.229251],[-50.751944,-26.225236],[-50.757943,-26.221221],[-50.792803,-26.227245],[-50.825528,-26.245947],[-50.82787,-26.253736],[-50.831666,-26.26635],[-50.838515,-26.270813],[-50.846169,-26.266829],[-50.861495,-26.243768],[-50.862637,-26.242049],[-50.865594,-26.241923],[-50.868551,-26.241798],[-50.878693,-26.258495],[-50.880116,-26.268034],[-50.881538,-26.277572],[-50.890486,-26.285253],[-50.899509,-26.288632],[-50.900534,-26.28816],[-50.902489,-26.287258],[-50.908718,-26.284386],[-50.907613,-26.251093],[-50.934518,-26.233383],[-50.941294,-26.23381],[-50.943269,-26.241724],[-50.940227,-26.248379],[-50.931329,-26.267842],[-50.937218,-26.278872],[-50.944197,-26.282015],[-50.952775,-26.26913],[-50.969726,-26.263059],[-50.97206,-26.254216],[-50.974394,-26.245372],[-50.984054,-26.239134],[-50.991014,-26.23464],[-50.999975,-26.229988],[-51.054698,-26.244485],[-51.062385,-26.242696],[-51.069294,-26.236679],[-51.079534,-26.227757],[-51.08267,-26.227889],[-51.084195,-26.234331],[-51.089063,-26.246485],[-51.094025,-26.249472],[-51.093389,-26.256898],[-51.093252,-26.258493],[-51.101387,-26.265179],[-51.104468,-26.274936],[-51.109132,-26.273555],[-51.121783,-26.279064],[-51.134454,-26.279157],[-51.136168,-26.27917],[-51.136343,-26.279988],[-51.137553,-26.285619],[-51.14347,-26.285304],[-51.145493,-26.283124],[-51.149221,-26.279106],[-51.163365,-26.283019],[-51.163348,-26.286903],[-51.163331,-26.29103],[-51.169358,-26.291102],[-51.181316,-26.29897],[-51.193333,-26.3015],[-51.198151,-26.299884],[-51.202858,-26.298305],[-51.207891,-26.296617],[-51.215718,-26.313497],[-51.219694,-26.317057],[-51.223668,-26.320617],[-51.227285,-26.321176],[-51.242771,-26.32357],[-51.244922,-26.329659],[-51.251155,-26.332414],[-51.252339,-26.334768],[-51.256002,-26.342053],[-51.256286,-26.342618],[-51.256024,-26.34299],[-51.25167,-26.349151],[-51.256334,-26.356288],[-51.261086,-26.363559],[-51.256647,-26.369708],[-51.252209,-26.375856],[-51.267059,-26.383351],[-51.270314,-26.384994],[-51.277757,-26.389969],[-51.276566,-26.395811],[-51.275997,-26.398602],[-51.276262,-26.401476],[-51.280412,-26.400849],[-51.288713,-26.399596],[-51.292231,-26.403973],[-51.290254,-26.407904],[-51.287143,-26.413847],[-51.297305,-26.41897],[-51.291197,-26.436647],[-51.282725,-26.441005],[-51.274063,-26.445459],[-51.277372,-26.450188],[-51.279854,-26.453734],[-51.277412,-26.457836],[-51.27104,-26.456676],[-51.267303,-26.460457],[-51.264347,-26.461003],[-51.253482,-26.463013],[-51.257121,-26.467004],[-51.260081,-26.470251],[-51.255082,-26.472119],[-51.250455,-26.473847],[-51.255667,-26.476532],[-51.266091,-26.481902],[-51.260754,-26.490683],[-51.268085,-26.490153],[-51.27378,-26.496581],[-51.268304,-26.499853],[-51.271542,-26.504455],[-51.262564,-26.507015],[-51.265468,-26.512368],[-51.261551,-26.512764],[-51.256487,-26.519787],[-51.25318,-26.520135],[-51.250917,-26.520372],[-51.249703,-26.525339],[-51.24656,-26.538196],[-51.240483,-26.539139],[-51.239113,-26.539351],[-51.239381,-26.540788],[-51.24011,-26.544691],[-51.235816,-26.546123],[-51.223283,-26.550301],[-51.229438,-26.554784],[-51.22822,-26.561653],[-51.216483,-26.568997],[-51.224142,-26.575887],[-51.224292,-26.57641],[-51.226782,-26.585091],[-51.226029,-26.586917],[-51.223579,-26.592852],[-51.233368,-26.600803],[-51.237332,-26.604022],[-51.235972,-26.605729],[-51.228168,-26.615517],[-51.232502,-26.614366],[-51.237332,-26.618653],[-51.238865,-26.627891],[-51.246036,-26.62694],[-51.248299,-26.62664],[-51.258144,-26.625334],[-51.265794,-26.635967],[-51.266942,-26.637562],[-51.268332,-26.63732],[-51.277078,-26.635799],[-51.274897,-26.640253],[-51.282225,-26.642092],[-51.282287,-26.643114],[-51.282918,-26.653499],[-51.305347,-26.654665],[-51.310597,-26.651461],[-51.323298,-26.656425],[-51.326009,-26.652451],[-51.328308,-26.649082],[-51.330848,-26.647202],[-51.334638,-26.647536],[-51.352637,-26.651666],[-51.362319,-26.656819],[-51.364613,-26.65804],[-51.372756,-26.658499],[-51.381038,-26.658966],[-51.390768,-26.663387],[-51.405401,-26.675668],[-51.39662,-26.681992],[-51.392411,-26.685023],[-51.392535,-26.697766],[-51.398221,-26.710419],[-51.398224,-26.710421],[-51.411026,-26.71679],[-51.406648,-26.70013],[-51.434847,-26.687632],[-51.436951,-26.677176],[-51.439058,-26.666719],[-51.446788,-26.66036],[-51.4552,-26.65344],[-51.45472,-26.6468],[-51.45424,-26.640159],[-51.463745,-26.626645],[-51.467713,-26.621556],[-51.474861,-26.618973],[-51.476311,-26.619415],[-51.485627,-26.622262],[-51.483885,-26.6131],[-51.483598,-26.611589],[-51.490396,-26.605219],[-51.493757,-26.589145],[-51.509564,-26.581689],[-51.517406,-26.585691],[-51.523191,-26.588642],[-51.529703,-26.591965],[-51.569365,-26.590917],[-51.58395,-26.590533],[-51.587101,-26.589405],[-51.59746,-26.585701],[-51.609537,-26.589053],[-51.614626,-26.590465],[-51.622784,-26.588844],[-51.630941,-26.587222],[-51.643652,-26.57699],[-51.64566,-26.575373],[-51.655112,-26.57048],[-51.664564,-26.565587],[-51.694555,-26.582943],[-51.73414,-26.574325],[-51.745659,-26.577532],[-51.745669,-26.577534],[-51.757177,-26.580738],[-51.779958,-26.586649],[-51.785031,-26.588169],[-51.790039,-26.588548],[-51.798157,-26.586635],[-51.802441,-26.585625],[-51.81815,-26.579555],[-51.823141,-26.581765],[-51.831768,-26.587249],[-51.843295,-26.594578],[-51.854606,-26.592002],[-51.863982,-26.595717],[-51.873106,-26.599744],[-51.879213,-26.596673],[-51.883176,-26.58663],[-51.883612,-26.585525],[-51.899061,-26.579655],[-51.927773,-26.584355],[-51.946315,-26.56991],[-51.956563,-26.573235],[-51.959376,-26.574147],[-51.96823,-26.569134],[-51.971134,-26.567489],[-51.974435,-26.567849],[-51.981454,-26.568615],[-51.984317,-26.565804],[-51.984716,-26.565412],[-51.986053,-26.565445],[-52.010731,-26.566059],[-52.013683,-26.559728],[-52.014871,-26.557178],[-52.01984,-26.554791],[-52.020723,-26.548215],[-52.02957,-26.546232],[-52.03231,-26.540437],[-52.046987,-26.534898],[-52.054698,-26.528083],[-52.056944,-26.528923],[-52.059767,-26.529978],[-52.061907,-26.526847],[-52.064078,-26.523673],[-52.068237,-26.5242],[-52.07841,-26.52549],[-52.082353,-26.518297],[-52.087538,-26.508839],[-52.08914,-26.50993],[-52.092897,-26.512491],[-52.096742,-26.504333],[-52.097982,-26.493158],[-52.099184,-26.48233],[-52.105472,-26.478952],[-52.111761,-26.475573],[-52.122411,-26.475588],[-52.128635,-26.475597],[-52.129956,-26.47409],[-52.133536,-26.470001],[-52.137793,-26.471406],[-52.143954,-26.473441],[-52.157278,-26.471389],[-52.176569,-26.453067],[-52.185149,-26.444918],[-52.190015,-26.445705],[-52.203632,-26.459488],[-52.205006,-26.459993],[-52.219903,-26.46546],[-52.228938,-26.46432],[-52.241858,-26.462688],[-52.245745,-26.457924],[-52.248452,-26.454608],[-52.262875,-26.454331],[-52.270643,-26.459463],[-52.274082,-26.461735],[-52.282331,-26.46202],[-52.283729,-26.458365],[-52.283906,-26.457902],[-52.304537,-26.440252],[-52.313765,-26.440227],[-52.322995,-26.440201],[-52.335978,-26.442438],[-52.337996,-26.439263],[-52.341431,-26.433857],[-52.348826,-26.438484],[-52.352618,-26.440856],[-52.358101,-26.437525],[-52.366838,-26.432217],[-52.371542,-26.436136],[-52.376246,-26.440055],[-52.386344,-26.434612],[-52.393985,-26.430493],[-52.400589,-26.422685],[-52.402538,-26.427744],[-52.411852,-26.432493],[-52.421354,-26.43734],[-52.443458,-26.439463],[-52.446064,-26.439449],[-52.458036,-26.439381],[-52.460757,-26.439366],[-52.465056,-26.436397],[-52.467655,-26.432797],[-52.476202,-26.420961],[-52.485984,-26.420252],[-52.495768,-26.419543],[-52.518183,-26.403637],[-52.522457,-26.400603],[-52.523643,-26.400819],[-52.538516,-26.403514],[-52.554861,-26.411157],[-52.558962,-26.407472],[-52.56449,-26.410086],[-52.570746,-26.409048],[-52.578492,-26.407762],[-52.590041,-26.413177],[-52.593618,-26.414854],[-52.595944,-26.41444],[-52.601021,-26.413537],[-52.612674,-26.40964],[-52.613423,-26.40939],[-52.613798,-26.40864],[-52.620606,-26.39502],[-52.633204,-26.390603],[-52.635563,-26.384873],[-52.644557,-26.380506],[-52.646738,-26.379448],[-52.657538,-26.374205],[-52.678078,-26.35219],[-52.699761,-26.356432],[-52.708268,-26.354577],[-52.71835,-26.356873],[-52.721283,-26.352951],[-52.725104,-26.347843],[-52.737252,-26.341682],[-52.741459,-26.344984],[-52.751194,-26.344131],[-52.756201,-26.349433],[-52.759214,-26.352625],[-52.763952,-26.351142],[-52.768875,-26.349604],[-52.775371,-26.347574],[-52.782929,-26.349793],[-52.790488,-26.352012],[-52.814165,-26.344284],[-52.84166,-26.345939],[-52.843514,-26.345454],[-52.844366,-26.345031],[-52.847478,-26.343486],[-52.866632,-26.355574],[-52.870977,-26.358315],[-52.874224,-26.359169],[-52.877472,-26.360023],[-52.907859,-26.359042],[-52.916249,-26.355072],[-52.926176,-26.36031],[-52.931,-26.360709],[-52.936889,-26.361197],[-52.949957,-26.361827],[-52.985627,-26.346957],[-52.987725,-26.347152],[-52.989824,-26.347346],[-53.005156,-26.356274],[-53.02728,-26.369157],[-53.046299,-26.380225],[-53.074032,-26.386419],[-53.090101,-26.390009],[-53.093841,-26.382632],[-53.100246,-26.383534],[-53.107067,-26.380972],[-53.108999,-26.376273],[-53.124029,-26.373778],[-53.132271,-26.366793],[-53.13326,-26.363688],[-53.134871,-26.358637],[-53.14003,-26.35676],[-53.145292,-26.345212],[-53.153023,-26.343615],[-53.157492,-26.347667],[-53.160521,-26.350413],[-53.164699,-26.349003],[-53.168757,-26.347633],[-53.183951,-26.343369],[-53.194936,-26.331655],[-53.197083,-26.329366],[-53.200934,-26.329187],[-53.204785,-26.329009],[-53.230721,-26.3121],[-53.245493,-26.297209],[-53.246823,-26.297497],[-53.251865,-26.298588],[-53.253822,-26.291148],[-53.254268,-26.289454],[-53.255453,-26.289193],[-53.261685,-26.28782],[-53.260139,-26.282567],[-53.259249,-26.279543],[-53.273134,-26.260283],[-53.27619,-26.259873],[-53.279782,-26.25939],[-53.280278,-26.254093],[-53.280969,-26.246701],[-53.287544,-26.249543],[-53.299719,-26.256162],[-53.305434,-26.259269],[-53.311129,-26.258752],[-53.314064,-26.257101],[-53.318642,-26.254527],[-53.331656,-26.253968],[-53.335386,-26.253808],[-53.335432,-26.253295],[-53.33582,-26.249004],[-53.340371,-26.248084],[-53.344933,-26.247162],[-53.347839,-26.251082],[-53.35039,-26.254521],[-53.355002,-26.249791],[-53.356056,-26.248711],[-53.357705,-26.249304],[-53.363531,-26.251397],[-53.368203,-26.247413],[-53.375075,-26.241553],[-53.377923,-26.245663],[-53.379965,-26.24861],[-53.383136,-26.24672],[-53.384793,-26.245733],[-53.389378,-26.249502],[-53.42005,-26.27471],[-53.43185,-26.27817],[-53.440534,-26.280504],[-53.460687,-26.294716],[-53.47122,-26.290234],[-53.472649,-26.289625],[-53.481978,-26.294088],[-53.487396,-26.29713],[-53.496683,-26.302344],[-53.52165,-26.292291],[-53.544029,-26.291327],[-53.551168,-26.292261],[-53.554094,-26.286971],[-53.5549,-26.285513],[-53.569978,-26.275425],[-53.571698,-26.275142],[-53.579848,-26.2738],[-53.581588,-26.268496],[-53.582962,-26.264305],[-53.586026,-26.254968],[-53.595543,-26.256203],[-53.601607,-26.257383],[-53.607229,-26.257497],[-53.620146,-26.256684],[-53.622648,-26.258504],[-53.624026,-26.259506],[-53.62515,-26.260323],[-53.642566,-26.252258],[-53.642894,-26.248202],[-53.637135,-26.249041],[-53.640793,-26.244482],[-53.643084,-26.241421],[-53.645258,-26.24003],[-53.647379,-26.238674],[-53.650671,-26.233523],[-53.648701,-26.22696],[-53.647105,-26.224182],[-53.645268,-26.220984],[-53.641816,-26.215088],[-53.6448,-26.210952],[-53.649652,-26.206731],[-53.650939,-26.205611],[-53.650881,-26.200938],[-53.65088,-26.200916],[-53.65057,-26.193535],[-53.653486,-26.192921],[-53.657376,-26.192102],[-53.662192,-26.186422],[-53.665304,-26.182928],[-53.66964,-26.178119],[-53.671478,-26.175666],[-53.673766,-26.172128],[-53.67589,-26.169073],[-53.678604,-26.164056],[-53.681238,-26.162573],[-53.687422,-26.159344],[-53.690632,-26.157363],[-53.690975,-26.157152],[-53.69138,-26.156922],[-53.699528,-26.152303],[-53.70333,-26.144821],[-53.703565,-26.144402],[-53.705477,-26.140984],[-53.707874,-26.136443],[-53.715865,-26.126206],[-53.719855,-26.127608],[-53.723016,-26.128718],[-53.727154,-26.126398],[-53.734177,-26.121959],[-53.737969,-26.118299],[-53.74067,-26.116477],[-53.741378,-26.111912],[-53.741839,-26.108189],[-53.737224,-26.100058],[-53.736934,-26.099546],[-53.737038,-26.098791],[-53.737648,-26.094329],[-53.738512,-26.087304],[-53.737359,-26.082498],[-53.735932,-26.078174],[-53.733512,-26.074915],[-53.733441,-26.074818],[-53.731455,-26.070409],[-53.726268,-26.066193],[-53.727159,-26.061818],[-53.729145,-26.056193],[-53.730815,-26.051438],[-53.732815,-26.045726],[-53.733712,-26.04391],[-53.734312,-26.042696],[-53.738882,-26.040916],[-53.742854,-26.039592],[-53.744912,-26.039916],[-53.746642,-26.040189],[-53.751526,-26.037649],[-53.755354,-26.040772],[-53.755498,-26.035408],[-53.755536,-26.033996],[-53.758786,-26.03088],[-53.760767,-26.033164],[-53.762439,-26.03509],[-53.767052,-26.032559],[-53.770494,-26.030271],[-53.771135,-26.025825],[-53.775314,-26.022574],[-53.778317,-26.019416],[-53.776996,-26.017614],[-53.775767,-26.015936],[-53.781731,-26.012925],[-53.779716,-26.008158],[-53.788734,-26.006272],[-53.791828,-26.005625],[-53.792342,-26.002881],[-53.793159,-25.998512],[-53.795559,-25.999857],[-53.797454,-26.000919],[-53.804078,-25.995186],[-53.802648,-25.993191],[-53.800045,-25.98956],[-53.801965,-25.984661],[-53.805231,-25.984458],[-53.807945,-25.987895],[-53.808213,-25.98796],[-53.813053,-25.989116],[-53.816535,-25.989079],[-53.817251,-25.985926],[-53.817465,-25.981022],[-53.814989,-25.980594],[-53.813933,-25.980412],[-53.816615,-25.977978],[-53.818444,-25.975088],[-53.820069,-25.97476],[-53.821556,-25.97446],[-53.825835,-25.974841],[-53.833534,-25.970366],[-53.833258,-25.965983],[-53.829547,-25.963873],[-53.827227,-25.962554],[-53.832219,-25.958774],[-53.833131,-25.958083],[-53.835547,-25.955964],[-53.838786,-25.953598],[-53.840103,-25.944957],[-53.84151,-25.93278],[-53.837361,-25.931476],[-53.83273,-25.927697],[-53.832462,-25.920681],[-53.828948,-25.924337],[-53.828737,-25.924469],[-53.823338,-25.927863],[-53.822605,-25.917352],[-53.821809,-25.916375],[-53.81804,-25.911747],[-53.825571,-25.91063],[-53.828568,-25.912077],[-53.832986,-25.91421],[-53.832658,-25.90985],[-53.832303,-25.906887],[-53.829633,-25.906051],[-53.822408,-25.90379],[-53.819,-25.898415],[-53.823553,-25.89527],[-53.831809,-25.893737],[-53.834605,-25.893217],[-53.837018,-25.887283],[-53.846504,-25.888236],[-53.848929,-25.883688],[-53.840274,-25.881532],[-53.838685,-25.877662],[-53.83462,-25.877826],[-53.833457,-25.877873],[-53.829244,-25.876816],[-53.826195,-25.874351],[-53.823216,-25.87194],[-53.835793,-25.868691],[-53.834642,-25.865327],[-53.832222,-25.858667],[-53.837453,-25.859944],[-53.837779,-25.859973],[-53.841363,-25.860289],[-53.843641,-25.857305],[-53.838588,-25.855409],[-53.837737,-25.85509],[-53.83546,-25.85271],[-53.834214,-25.849982],[-53.838614,-25.843996],[-53.840635,-25.840931],[-53.841153,-25.840934],[-53.845567,-25.84096],[-53.848736,-25.841469],[-53.848676,-25.835643],[-53.846091,-25.831725],[-53.842961,-25.827715],[-53.837271,-25.825135],[-53.835777,-25.824458],[-53.836054,-25.82331],[-53.837847,-25.815887],[-53.831989,-25.814249],[-53.82965,-25.813709],[-53.82746,-25.813204],[-53.820214,-25.81598],[-53.818951,-25.812361],[-53.822527,-25.810765],[-53.826354,-25.808767],[-53.827246,-25.808301],[-53.825445,-25.805579],[-53.823349,-25.802411],[-53.821412,-25.800052],[-53.822351,-25.792061],[-53.831268,-25.791481],[-53.83137,-25.791466],[-53.840617,-25.790087],[-53.833468,-25.78647],[-53.83337,-25.786422],[-53.830759,-25.782183],[-53.83853,-25.774128],[-53.8423,-25.770219],[-53.847203,-25.76869],[-53.852783,-25.767102],[-53.855878,-25.765897],[-53.850711,-25.76065],[-53.848439,-25.757929],[-53.84539,-25.75846],[-53.843953,-25.758813],[-53.840831,-25.75958],[-53.841254,-25.751707],[-53.837634,-25.751443],[-53.833541,-25.750302],[-53.840192,-25.746415],[-53.844983,-25.743176],[-53.84797,-25.740736],[-53.850167,-25.741266],[-53.853296,-25.742021],[-53.863907,-25.740875],[-53.862025,-25.73253],[-53.860863,-25.729485],[-53.859161,-25.724304],[-53.85978,-25.718384],[-53.864117,-25.717672],[-53.868002,-25.71888],[-53.867212,-25.715262],[-53.871997,-25.711407],[-53.876608,-25.708041],[-53.864379,-25.704683],[-53.865767,-25.697464],[-53.860003,-25.699548],[-53.859749,-25.69964],[-53.857315,-25.702932],[-53.855156,-25.706117],[-53.849856,-25.702134],[-53.852172,-25.695434],[-53.853631,-25.690966],[-53.849013,-25.690223],[-53.841791,-25.68764],[-53.844749,-25.685751],[-53.852634,-25.682417],[-53.853796,-25.681753],[-53.85722,-25.679797],[-53.855508,-25.676201],[-53.854386,-25.673844],[-53.857702,-25.666118],[-53.861473,-25.661091],[-53.863472,-25.658954],[-53.871738,-25.655309],[-53.874482,-25.654177],[-53.874855,-25.654023],[-53.882967,-25.657913],[-53.887881,-25.659759],[-53.885126,-25.654537],[-53.881437,-25.647778],[-53.880546,-25.647138],[-53.878238,-25.645481],[-53.877961,-25.64039],[-53.883886,-25.643261],[-53.885829,-25.644203],[-53.894434,-25.642287],[-53.892565,-25.637812],[-53.890916,-25.633863],[-53.889228,-25.629483],[-53.88747,-25.625508],[-53.892053,-25.622098],[-53.900906,-25.628397],[-53.904856,-25.63133],[-53.906577,-25.632607],[-53.911913,-25.635539],[-53.912718,-25.632561],[-53.914374,-25.62938],[-53.918805,-25.631251],[-53.917283,-25.626283],[-53.917051,-25.625527],[-53.913967,-25.621771],[-53.915414,-25.615985],[-53.920738,-25.617599],[-53.92374,-25.618813],[-53.926758,-25.620065],[-53.932714,-25.621795],[-53.938391,-25.61995],[-53.941488,-25.614382],[-53.941951,-25.611416],[-53.947238,-25.611319],[-53.947871,-25.619371],[-53.952149,-25.623045],[-53.9492,-25.626034],[-53.947157,-25.628239],[-53.946392,-25.629065],[-53.944033,-25.630816],[-53.946612,-25.635385],[-53.949339,-25.643099],[-53.950775,-25.646682],[-53.956019,-25.644995],[-53.960272,-25.638924],[-53.961118,-25.635679],[-53.960067,-25.630246],[-53.960784,-25.625801],[-53.962663,-25.619547],[-53.964343,-25.613454],[-53.974159,-25.614513],[-53.976545,-25.611323],[-53.976202,-25.605123],[-53.972724,-25.603888],[-53.970558,-25.603118],[-53.96997,-25.599834],[-53.975279,-25.596147],[-53.984406,-25.589808],[-53.987573,-25.587798],[-53.990205,-25.585628],[-54.000256,-25.57987],[-54.007859,-25.569163],[-54.010449,-25.56653],[-54.018826,-25.563965],[-54.022919,-25.564996],[-54.028732,-25.567255],[-54.030643,-25.569788],[-54.032397,-25.572326],[-54.033805,-25.574373],[-54.035592,-25.57697],[-54.040343,-25.583168],[-54.045994,-25.58425],[-54.049619,-25.584509],[-54.056837,-25.579307],[-54.059349,-25.577303],[-54.06016,-25.576052],[-54.061884,-25.573393],[-54.070281,-25.560137],[-54.078793,-25.558622],[-54.080549,-25.561961],[-54.084129,-25.572189],[-54.085489,-25.575788],[-54.086763,-25.579099],[-54.088761,-25.584315],[-54.088763,-25.58786],[-54.088764,-25.588206],[-54.088766,-25.59088],[-54.088777,-25.603444],[-54.089272,-25.611191],[-54.093733,-25.61608],[-54.098311,-25.618256],[-54.102124,-25.613665],[-54.104834,-25.610169],[-54.110201,-25.602417],[-54.118554,-25.581628],[-54.122632,-25.570848],[-54.122556,-25.565912],[-54.122036,-25.559943],[-54.120357,-25.556292],[-54.118836,-25.553055],[-54.114973,-25.547312],[-54.108993,-25.539173],[-54.105178,-25.533982],[-54.097398,-25.522914],[-54.096024,-25.518714],[-54.092647,-25.500294],[-54.094617,-25.495836],[-54.099163,-25.494904],[-54.104611,-25.494968],[-54.109129,-25.495648],[-54.128005,-25.50885],[-54.130961,-25.511022],[-54.143531,-25.520257],[-54.147424,-25.524839],[-54.149458,-25.527411],[-54.152262,-25.530935],[-54.157208,-25.536934],[-54.161315,-25.540574],[-54.165166,-25.540788],[-54.169301,-25.540795],[-54.172966,-25.540811],[-54.174293,-25.540258],[-54.186321,-25.535243],[-54.190358,-25.53373],[-54.197983,-25.53526],[-54.206121,-25.542375],[-54.206957,-25.545538],[-54.207414,-25.548692],[-54.206855,-25.553339],[-54.203653,-25.557681],[-54.197856,-25.559551],[-54.195678,-25.56024],[-54.18966,-25.562143],[-54.179716,-25.565286],[-54.173263,-25.573733],[-54.172993,-25.580288],[-54.175448,-25.582531],[-54.177977,-25.584268],[-54.181169,-25.584053],[-54.188617,-25.583071],[-54.194013,-25.582254],[-54.19927,-25.581427],[-54.20266,-25.57905],[-54.20451,-25.577692],[-54.208994,-25.5744],[-54.223077,-25.563979],[-54.230021,-25.562361],[-54.234075,-25.563949],[-54.23684,-25.569873],[-54.23354,-25.578934],[-54.231791,-25.583735],[-54.235116,-25.592995],[-54.241333,-25.597267],[-54.244765,-25.597145],[-54.249437,-25.596676],[-54.257889,-25.588396],[-54.263275,-25.582807],[-54.272089,-25.566295],[-54.27572,-25.559492],[-54.280071,-25.556371],[-54.28583,-25.556503],[-54.294334,-25.557414],[-54.294435,-25.557456],[-54.3038,-25.56148],[-54.327775,-25.571673],[-54.327784,-25.571655],[-54.332364,-25.581084],[-54.337547,-25.591754],[-54.340068,-25.596527],[-54.342481,-25.601095],[-54.345885,-25.606863],[-54.351475,-25.60715],[-54.354849,-25.607044],[-54.359282,-25.603184],[-54.362771,-25.600146],[-54.366114,-25.596985],[-54.369915,-25.593739],[-54.378146,-25.594379],[-54.386332,-25.60191],[-54.388748,-25.604906],[-54.388217,-25.612372],[-54.3876,-25.617926],[-54.387497,-25.619432],[-54.387328,-25.621879],[-54.390579,-25.62899],[-54.393144,-25.634075],[-54.397529,-25.637771],[-54.412728,-25.648994],[-54.418507,-25.653346],[-54.422027,-25.657935],[-54.423551,-25.662252],[-54.423935,-25.670784],[-54.42313,-25.678664],[-54.422552,-25.68391],[-54.422238,-25.688193],[-54.425453,-25.691519],[-54.429093,-25.694822],[-54.432892,-25.693407],[-54.436675,-25.690042],[-54.440111,-25.682619],[-54.441283,-25.669749],[-54.443969,-25.662378],[-54.447187,-25.658432],[-54.460872,-25.64323],[-54.464853,-25.63892],[-54.467076,-25.636513],[-54.483094,-25.625482],[-54.499891,-25.614024],[-54.50436,-25.616752],[-54.51298,-25.622258],[-54.513502,-25.622577],[-54.517515,-25.625026],[-54.522005,-25.627081],[-54.525553,-25.627165],[-54.529905,-25.623906],[-54.532916,-25.620995],[-54.536356,-25.61741],[-54.534339,-25.608445],[-54.533752,-25.605833],[-54.533451,-25.59984],[-54.537126,-25.597017],[-54.540338,-25.59455],[-54.549987,-25.589507],[-54.555355,-25.586833],[-54.565706,-25.590457],[-54.574016,-25.590749],[-54.579944,-25.591202],[-54.58278,-25.591347],[-54.589471,-25.59169],[-54.593079,-25.591815],[-54.593062,-25.583027],[-54.593198,-25.563024],[-54.59323,-25.558002],[-54.593094,-25.553768],[-54.592984,-25.552735],[-54.59208,-25.544192],[-54.597142,-25.531572],[-54.598635,-25.527851],[-54.599717,-25.521451],[-54.599886,-25.505037],[-54.600217,-25.499048],[-54.600259,-25.495833],[-54.600328,-25.490438],[-54.600942,-25.483622],[-54.610025,-25.475262],[-54.610421,-25.474898],[-54.616663,-25.468886],[-54.617661,-25.463316],[-54.618341,-25.456385],[-54.617326,-25.452526],[-54.607393,-25.445833],[-54.60585,-25.444326],[-54.601935,-25.440502],[-54.599299,-25.433986],[-54.598107,-25.43066],[-54.596295,-25.425118],[-54.589504,-25.412837],[-54.586926,-25.403418],[-54.586844,-25.40014],[-54.586769,-25.397093],[-54.578721,-25.384839],[-54.571874,-25.376711],[-54.571116,-25.375727],[-54.570437,-25.374848],[-54.567975,-25.371654],[-54.56427,-25.36719],[-54.550839,-25.356624],[-54.548796,-25.35496],[-54.541211,-25.348783],[-54.538701,-25.345108],[-54.531902,-25.335163],[-54.526532,-25.327716],[-54.524948,-25.325506],[-54.524639,-25.325074],[-54.517547,-25.314961],[-54.510663,-25.310108],[-54.506597,-25.30724],[-54.5022,-25.300986],[-54.502199,-25.300983],[-54.500732,-25.298896],[-54.490303,-25.275094],[-54.489596,-25.271165],[-54.488281,-25.264419],[-54.488187,-25.264011],[-54.485999,-25.254446],[-54.485252,-25.251169],[-54.48513,-25.250637],[-54.481212,-25.232624],[-54.470228,-25.211725],[-54.468665,-25.207377],[-54.466239,-25.201322],[-54.461601,-25.193241],[-54.455756,-25.183968],[-54.447553,-25.173404],[-54.442935,-25.171616],[-54.441921,-25.171393],[-54.436944,-25.170299],[-54.429612,-25.158893],[-54.429868,-25.154147],[-54.431193,-25.136521],[-54.432266,-25.130774],[-54.44019,-25.120912],[-54.440786,-25.12037],[-54.452406,-25.109791],[-54.4542,-25.107246],[-54.455678,-25.104814],[-54.458976,-25.098269],[-54.4606,-25.094463],[-54.458111,-25.083853],[-54.457153,-25.079413],[-54.456826,-25.0779],[-54.456603,-25.07185],[-54.458069,-25.068577],[-54.461521,-25.060877],[-54.460242,-25.049601],[-54.459364,-25.042179],[-54.458684,-25.038449],[-54.456568,-25.031788],[-54.453254,-25.021694],[-54.45168,-25.017599],[-54.450216,-25.013699],[-54.441972,-24.989904],[-54.439958,-24.962594],[-54.441247,-24.953669],[-54.441436,-24.952359],[-54.441297,-24.948607],[-54.436287,-24.93963],[-54.430488,-24.92924],[-54.428912,-24.921356],[-54.428387,-24.918729],[-54.425866,-24.912978],[-54.421048,-24.901987],[-54.417792,-24.893941],[-54.415541,-24.881933],[-54.414518,-24.874782],[-54.413615,-24.868467],[-54.411907,-24.859631],[-54.41178,-24.858959],[-54.41001,-24.849616],[-54.408776,-24.842009],[-54.401368,-24.825194],[-54.399517,-24.820992],[-54.398949,-24.817351],[-54.397428,-24.807575],[-54.393712,-24.800365],[-54.391661,-24.796385],[-54.391144,-24.793218],[-54.389667,-24.784174],[-54.381742,-24.767929],[-54.375323,-24.762809],[-54.368903,-24.757688],[-54.358974,-24.745099],[-54.357311,-24.742745],[-54.356079,-24.73867],[-54.355112,-24.735478],[-54.34902,-24.713259],[-54.340879,-24.698351],[-54.337408,-24.691727],[-54.324883,-24.660685],[-54.324594,-24.656812],[-54.323583,-24.651003],[-54.322506,-24.638402],[-54.320478,-24.625154],[-54.320452,-24.624921],[-54.320024,-24.62112],[-54.320023,-24.621113],[-54.319302,-24.614709],[-54.316996,-24.590097],[-54.319278,-24.574656],[-54.319964,-24.571088],[-54.327613,-24.550217],[-54.333252,-24.535441],[-54.33519,-24.52971],[-54.335556,-24.525747],[-54.335871,-24.521112],[-54.336118,-24.512934],[-54.336336,-24.505873],[-54.335631,-24.499349],[-54.329573,-24.479439],[-54.328751,-24.476685],[-54.326794,-24.470355],[-54.322487,-24.457846],[-54.300662,-24.431408],[-54.296263,-24.426238],[-54.295493,-24.425333],[-54.289832,-24.417768],[-54.288801,-24.41623],[-54.287226,-24.413883],[-54.284955,-24.410497],[-54.281042,-24.404651],[-54.275062,-24.392774],[-54.272642,-24.389068],[-54.270647,-24.384692],[-54.268587,-24.380865],[-54.263809,-24.372337],[-54.259072,-24.366522],[-54.258579,-24.365135],[-54.257592,-24.36236],[-54.257879,-24.356811],[-54.259943,-24.347227],[-54.263966,-24.329938],[-54.264819,-24.326281],[-54.269411,-24.305519],[-54.271107,-24.302577],[-54.284522,-24.28116],[-54.28997,-24.276646],[-54.295418,-24.272131],[-54.317499,-24.254362],[-54.322727,-24.249472],[-54.324352,-24.2435],[-54.324737,-24.232454],[-54.324325,-24.226611],[-54.323606,-24.21639],[-54.324205,-24.212406],[-54.326271,-24.208742],[-54.327832,-24.205976],[-54.327909,-24.199471],[-54.328001,-24.19175],[-54.329004,-24.188817],[-54.334546,-24.176207],[-54.335631,-24.173658],[-54.336315,-24.172051],[-54.339896,-24.164387],[-54.342355,-24.158333],[-54.343537,-24.144616],[-54.344697,-24.139573],[-54.340948,-24.128722],[-54.335126,-24.118134],[-54.332863,-24.115707],[-54.329856,-24.112387],[-54.322031,-24.10572],[-54.311112,-24.099148],[-54.307273,-24.09692],[-54.30428,-24.095182],[-54.301347,-24.091249],[-54.295134,-24.082315],[-54.289885,-24.074136],[-54.287104,-24.06951],[-54.274391,-24.06129],[-54.250258,-24.054938],[-54.246326,-24.053903],[-54.241152,-24.050886],[-54.167896,-23.998728],[-54.129176,-23.981628],[-54.109859,-23.960792],[-54.104591,-23.953389],[-54.099323,-23.945986],[-54.079374,-23.888499],[-54.083765,-23.864707],[-54.083814,-23.864441],[-54.087575,-23.84405],[-54.084045,-23.834582],[-54.082568,-23.830619],[-54.084101,-23.827549],[-54.085531,-23.82468],[-54.083107,-23.805007],[-54.075179,-23.764004],[-54.052899,-23.724463],[-54.050362,-23.686817],[-54.044077,-23.668176],[-54.031704,-23.651193],[-54.030726,-23.643386],[-54.02881,-23.628095],[-54.023489,-23.585598],[-54.00682,-23.544269],[-54.003812,-23.510603],[-53.982333,-23.459527],[-53.976867,-23.453396],[-53.965241,-23.445023],[-53.964081,-23.444691],[-53.96056,-23.443681],[-53.931526,-23.445471],[-53.876068,-23.419308],[-53.815493,-23.385166],[-53.775728,-23.372118],[-53.770581,-23.371651],[-53.768746,-23.369185],[-53.761375,-23.359278],[-53.730098,-23.317225],[-53.714632,-23.282698],[-53.711025,-23.273292],[-53.707418,-23.263886],[-53.684907,-23.205187],[-53.659331,-23.165287],[-53.659568,-23.159635],[-53.659806,-23.153981],[-53.636063,-23.124554],[-53.630058,-23.011341],[-53.632158,-23.00345],[-53.633102,-22.999902],[-53.633603,-22.998018],[-53.625749,-22.987087],[-53.616111,-22.973675],[-53.611507,-22.962267],[-53.6069,-22.950856],[-53.588785,-22.935759],[-53.579516,-22.931886],[-53.570247,-22.928013],[-53.560259,-22.915686],[-53.559591,-22.910586],[-53.558921,-22.905484],[-53.546304,-22.889621],[-53.540257,-22.885856],[-53.53421,-22.882091],[-53.48424,-22.863377],[-53.450336,-22.841458],[-53.439733,-22.836967],[-53.42913,-22.832477],[-53.411002,-22.815296],[-53.409564,-22.813933],[-53.405032,-22.810793],[-53.400499,-22.807652],[-53.377031,-22.80276],[-53.360767,-22.781418],[-53.357399,-22.779155],[-53.354031,-22.776892],[-53.326335,-22.764805],[-53.239472,-22.733273],[-53.201436,-22.728292],[-53.190936,-22.720726],[-53.180435,-22.71316],[-53.127451,-22.651613],[-53.104669,-22.621452],[-53.094071,-22.63749],[-53.087301,-22.657924],[-53.074205,-22.640865],[-53.052965,-22.630236],[-53.045488,-22.62409],[-53.038011,-22.617945],[-53.024001,-22.603722],[-53.011938,-22.597539],[-52.984351,-22.575877],[-52.97813,-22.572942],[-52.971909,-22.570007],[-52.924226,-22.565147],[-52.914538,-22.568438],[-52.904848,-22.57173],[-52.884901,-22.587655],[-52.865708,-22.602978],[-52.857848,-22.607524],[-52.844348,-22.608742],[-52.814925,-22.596567],[-52.782442,-22.60191],[-52.779479,-22.602455],[-52.770076,-22.605442],[-52.749787,-22.611889],[-52.721925,-22.626272],[-52.711546,-22.626631],[-52.701168,-22.626991],[-52.662436,-22.611381],[-52.60274,-22.570728],[-52.586219,-22.56604],[-52.579758,-22.568523],[-52.566622,-22.588763],[-52.539913,-22.613112],[-52.536486,-22.614386],[-52.533126,-22.615639],[-52.522981,-22.619418],[-52.520369,-22.621252],[-52.502793,-22.633593],[-52.496208,-22.631881],[-52.489623,-22.63017],[-52.483406,-22.626621],[-52.458244,-22.612259],[-52.446364,-22.608371],[-52.435721,-22.607026],[-52.434781,-22.606908],[-52.433898,-22.607158],[-52.420855,-22.610865],[-52.369185,-22.628503],[-52.304275,-22.635992],[-52.299468,-22.633028],[-52.289751,-22.627037],[-52.278175,-22.619903],[-52.249904,-22.614947],[-52.239622,-22.619403],[-52.229976,-22.637544],[-52.228656,-22.653715],[-52.227749,-22.66482],[-52.222989,-22.673825],[-52.218602,-22.67279],[-52.210582,-22.667546],[-52.196672,-22.65845],[-52.181053,-22.652971],[-52.15617,-22.644239],[-52.161354,-22.605409],[-52.161132,-22.601363],[-52.160911,-22.597317],[-52.156183,-22.582259],[-52.151919,-22.568675],[-52.150087,-22.558724],[-52.148254,-22.548772],[-52.134895,-22.52743],[-52.125167,-22.51879],[-52.110181,-22.516647],[-52.107133,-22.516211],[-52.098129,-22.518487],[-52.098123,-22.518489],[-52.089126,-22.520765],[-52.084758,-22.523051],[-52.064157,-22.533836]]]]},"properties":{"id":18,"name":"Paraná","sigla":"PR","regiao_id":"1","codigo_ibg":"41","cartodb_id":18,"created_at":"2015-02-09T16:46:01Z","updated_at":"2015-02-09T16:46:01Z"}}]}